{"type": "FeatureCollection", "features": [ {"type": "Feature", "properties": {"norad_id": 41556, "name": "ZIYUAN 3-02 (ZY 3-02)", "group": "resource", "lat": -18.51949288072441, "lon": -109.21968185049512, "alt_km": 499.4120118215051, "timestamp": "2025-12-25T07:41:09.380289+00:00", "meta": {"OBJECT_NAME": "ZIYUAN 3-02 (ZY 3-02)", "OBJECT_ID": "2016-033A", "EPOCH": "2025-12-24T22:55:19.666272", "MEAN_MOTION": 15.21225207, "ECCENTRICITY": 0.00114229, "INCLINATION": 97.4024, "RA_OF_ASC_NODE": 72.9174, "ARG_OF_PERICENTER": 200.6198, "MEAN_ANOMALY": 159.4579, "EPHEMERIS_TYPE": 0, "CLASSIFICATION_TYPE": "U", "NORAD_CAT_ID": 41556, "ELEMENT_SET_NO": 999, "REV_AT_EPOCH": 53149, "BSTAR": 0.00037495549, "MEAN_MOTION_DOT": 8.317e-05, "MEAN_MOTION_DDOT": 0}, "tle": {"line1": "1 41556U 16033A   25358.95508873  .00008317  00000+0  37496-3 0  9992", "line2": "2 41556  97.4024  72.9174 0011422 200.6198 159.4579 15.21225207531494"}}, "geometry": {"type": "Point", "coordinates": [-109.21968185049512, -18.51949288072441]}}, {"type": "Feature", "properties": {"norad_id": 41599, "name": "CARTOSAT-2C", "group": "resource", "lat": 49.05755166874354, "lon": 47.7349361181022, "alt_km": 497.2010038578619, "timestamp": "2025-12-25T07:41:09.380299+00:00", "meta": {"OBJECT_NAME": "CARTOSAT-2C", "OBJECT_ID": "2016-040A", "EPOCH": "2025-12-24T23:33:53.640576", "MEAN_MOTION": 15.19222936, "ECCENTRICITY": 0.00107057, "INCLINATION": 97.4744, "RA_OF_ASC_NODE": 56.1046, "ARG_OF_PERICENTER": 24.2317, "MEAN_ANOMALY": 335.9418, "EPHEMERIS_TYPE": 0, "CLASSIFICATION_TYPE": "U", "NORAD_CAT_ID": 41599, "ELEMENT_SET_NO": 999, "REV_AT_EPOCH": 52726, "BSTAR": 0.00022880792, "MEAN_MOTION_DOT": 4.756e-05, "MEAN_MOTION_DDOT": 0}, "tle": {"line1": "1 41599U 16040A   25358.98187084  .00004756  00000+0  22881-3 0  9992", "line2": "2 41599  97.4744  56.1046 0010705  24.2317 335.9418 15.19222936527264"}}, "geometry": {"type": "Point", "coordinates": [47.7349361181022, 49.05755166874354]}}, {"type": "Feature", "properties": {"norad_id": 41601, "name": "SKYSAT-C1", "group": "resource", "lat": -5.671605368515723, "lon": 36.32163235763387, "alt_km": 470.6968177260105, "timestamp": "2025-12-25T07:41:09.380310+00:00", "meta": {"OBJECT_NAME": "SKYSAT-C1", "OBJECT_ID": "2016-040C", "EPOCH": "2025-12-24T20:44:36.125664", "MEAN_MOTION": 15.32803392, "ECCENTRICITY": 9.494e-05, "INCLINATION": 96.9806, "RA_OF_ASC_NODE": 35.1941, "ARG_OF_PERICENTER": 324.7262, "MEAN_ANOMALY": 35.3918, "EPHEMERIS_TYPE": 0, "CLASSIFICATION_TYPE": "U", "NORAD_CAT_ID": 41601, "ELEMENT_SET_NO": 999, "REV_AT_EPOCH": 53113, "BSTAR": 0.00032009116, "MEAN_MOTION_DOT": 0.00010072, "MEAN_MOTION_DDOT": 0}, "tle": {"line1": "1 41601U 16040C   25358.86430701  .00010072  00000+0  32009-3 0  9991", "line2": "2 41601  96.9806  35.1941 0000949 324.7262  35.3918 15.32803392531131"}}, "geometry": {"type": "Point", "coordinates": [36.32163235763387, -5.671605368515723]}}, {"type": "Feature", "properties": {"norad_id": 41603, "name": "LAPAN-A3", "group": "resource", "lat": 82.72286742539283, "lon": -82.72988278573838, "alt_km": 469.2008670667201, "timestamp": "2025-12-25T07:41:09.380321+00:00", "meta": {"OBJECT_NAME": "LAPAN-A3", "OBJECT_ID": "2016-040E", "EPOCH": "2025-12-24T23:27:37.218240", "MEAN_MOTION": 15.31650414, "ECCENTRICITY": 0.0008679, "INCLINATION": 97.1434, "RA_OF_ASC_NODE": 356.089, "ARG_OF_PERICENTER": 283.0163, "MEAN_ANOMALY": 77.011, "EPHEMERIS_TYPE": 0, "CLASSIFICATION_TYPE": "U", "NORAD_CAT_ID": 41603, "ELEMENT_SET_NO": 999, "REV_AT_EPOCH": 52813, "BSTAR": 0.00015826493, "MEAN_MOTION_DOT": 4.767e-05, "MEAN_MOTION_DDOT": 0}, "tle": {"line1": "1 41603U 16040E   25358.97751410  .00004767  00000+0  15826-3 0  9990", "line2": "2 41603  97.1434 356.0890 0008679 283.0163  77.0110 15.31650414528133"}}, "geometry": {"type": "Point", "coordinates": [-82.72988278573838, 82.72286742539283]}}, {"type": "Feature", "properties": {"norad_id": 41604, "name": "BIROS", "group": "resource", "lat": 49.51886863034874, "lon": -140.34106789412405, "alt_km": 281.80446258827124, "timestamp": "2025-12-25T07:41:09.380331+00:00", "meta": {"OBJECT_NAME": "BIROS", "OBJECT_ID": "2016-040F", "EPOCH": "2025-12-24T13:04:12.807552", "MEAN_MOTION": 15.94433858, "ECCENTRICITY": 0.00038069, "INCLINATION": 97.0656, "RA_OF_ASC_NODE": 30.4902, "ARG_OF_PERICENTER": 125.9749, "MEAN_ANOMALY": 234.1881, "EPHEMERIS_TYPE": 0, "CLASSIFICATION_TYPE": "U", "NORAD_CAT_ID": 41604, "ELEMENT_SET_NO": 999, "REV_AT_EPOCH": 53060, "BSTAR": 0.00067310461, "MEAN_MOTION_DOT": 0.00251039, "MEAN_MOTION_DDOT": 2.6148042e-05}, "tle": {"line1": "1 41604U 16040F   25358.54459268  .00251039  26148-4  67310-3 0  9997", "line2": "2 41604  97.0656  30.4902 0003806 125.9749 234.1881 15.94433858530603"}}, "geometry": {"type": "Point", "coordinates": [-140.34106789412405, 49.51886863034874]}}, {"type": "Feature", "properties": {"norad_id": 41727, "name": "GAOFEN-3", "group": "resource", "lat": 34.731804797291886, "lon": -169.4037560818014, "alt_km": 748.8727685252616, "timestamp": "2025-12-25T07:41:09.380342+00:00", "meta": {"OBJECT_NAME": "GAOFEN-3", "OBJECT_ID": "2016-049A", "EPOCH": "2025-12-25T00:21:24.611616", "MEAN_MOTION": 14.42216139, "ECCENTRICITY": 0.00010824, "INCLINATION": 98.4035, "RA_OF_ASC_NODE": 4.4135, "ARG_OF_PERICENTER": 55.9867, "MEAN_ANOMALY": 304.1425, "EPHEMERIS_TYPE": 0, "CLASSIFICATION_TYPE": "U", "NORAD_CAT_ID": 41727, "ELEMENT_SET_NO": 999, "REV_AT_EPOCH": 49354, "BSTAR": -5.688802e-06, "MEAN_MOTION_DOT": -6.2e-07, "MEAN_MOTION_DDOT": 0}, "tle": {"line1": "1 41727U 16049A   25359.01486819 -.00000062  00000+0 -56888-5 0  9991", "line2": "2 41727  98.4035   4.4135 0001082  55.9867 304.1425 14.42216139493547"}}, "geometry": {"type": "Point", "coordinates": [-169.4037560818014, 34.731804797291886]}}, {"type": "Feature", "properties": {"norad_id": 41771, "name": "SKYSAT-C4", "group": "resource", "lat": 9.079362404173281, "lon": 22.782481844911388, "alt_km": 440.97699761080094, "timestamp": "2025-12-25T07:41:09.380353+00:00", "meta": {"OBJECT_NAME": "SKYSAT-C4", "OBJECT_ID": "2016-058B", "EPOCH": "2025-12-24T19:11:29.833440", "MEAN_MOTION": 15.42586627, "ECCENTRICITY": 0.00025333, "INCLINATION": 96.9361, "RA_OF_ASC_NODE": 23.4017, "ARG_OF_PERICENTER": 124.0416, "MEAN_ANOMALY": 236.1074, "EPHEMERIS_TYPE": 0, "CLASSIFICATION_TYPE": "U", "NORAD_CAT_ID": 41771, "ELEMENT_SET_NO": 999, "REV_AT_EPOCH": 51853, "BSTAR": 0.00035759888, "MEAN_MOTION_DOT": 0.00015476, "MEAN_MOTION_DDOT": 0}, "tle": {"line1": "1 41771U 16058B   25358.79965085  .00015476  00000+0  35760-3 0  9998", "line2": "2 41771  96.9361  23.4017 0002533 124.0416 236.1074 15.42586627518535"}}, "geometry": {"type": "Point", "coordinates": [22.782481844911388, 9.079362404173281]}}, {"type": "Feature", "properties": {"norad_id": 41772, "name": "SKYSAT-C5", "group": "resource", "lat": -82.26419072917584, "lon": 156.45814526609215, "alt_km": 468.79042171970195, "timestamp": "2025-12-25T07:41:09.380363+00:00", "meta": {"OBJECT_NAME": "SKYSAT-C5", "OBJECT_ID": "2016-058C", "EPOCH": "2025-12-24T16:26:12.494112", "MEAN_MOTION": 15.34086313, "ECCENTRICITY": 0.00039444, "INCLINATION": 97.0739, "RA_OF_ASC_NODE": 41.9366, "ARG_OF_PERICENTER": 233.2582, "MEAN_ANOMALY": 126.83, "EPHEMERIS_TYPE": 0, "CLASSIFICATION_TYPE": "U", "NORAD_CAT_ID": 41772, "ELEMENT_SET_NO": 999, "REV_AT_EPOCH": 51699, "BSTAR": 0.00029731839, "MEAN_MOTION_DOT": 9.736e-05, "MEAN_MOTION_DDOT": 0}, "tle": {"line1": "1 41772U 16058C   25358.68486683  .00009736  00000+0  29732-3 0  9993", "line2": "2 41772  97.0739  41.9366 0003944 233.2582 126.8300 15.34086313516996"}}, "geometry": {"type": "Point", "coordinates": [156.45814526609215, -82.26419072917584]}}, {"type": "Feature", "properties": {"norad_id": 41773, "name": "SKYSAT-C2", "group": "resource", "lat": 66.27800848671396, "lon": 6.992729540059561, "alt_km": 446.32480560538716, "timestamp": "2025-12-25T07:41:09.380373+00:00", "meta": {"OBJECT_NAME": "SKYSAT-C2", "OBJECT_ID": "2016-058D", "EPOCH": "2025-12-24T18:53:55.761216", "MEAN_MOTION": 15.37535283, "ECCENTRICITY": 0.00028111, "INCLINATION": 97.035, "RA_OF_ASC_NODE": 22.804, "ARG_OF_PERICENTER": 358.0157, "MEAN_ANOMALY": 2.1077, "EPHEMERIS_TYPE": 0, "CLASSIFICATION_TYPE": "U", "NORAD_CAT_ID": 41773, "ELEMENT_SET_NO": 999, "REV_AT_EPOCH": 51821, "BSTAR": 0.00031458029, "MEAN_MOTION_DOT": 0.00011512, "MEAN_MOTION_DDOT": 0}, "tle": {"line1": "1 41773U 16058D   25358.78745094  .00011512  00000+0  31458-3 0  9992", "line2": "2 41773  97.0350  22.8040 0002811 358.0157   2.1077 15.37535283518211"}}, "geometry": {"type": "Point", "coordinates": [6.992729540059561, 66.27800848671396]}}, {"type": "Feature", "properties": {"norad_id": 41774, "name": "SKYSAT-C3", "group": "resource", "lat": -41.428089462742854, "lon": -153.67794917734298, "alt_km": 439.1957118959972, "timestamp": "2025-12-25T07:41:09.380387+00:00", "meta": {"OBJECT_NAME": "SKYSAT-C3", "OBJECT_ID": "2016-058E", "EPOCH": "2025-12-24T19:50:49.663680", "MEAN_MOTION": 15.44820533, "ECCENTRICITY": 0.00021264, "INCLINATION": 96.928, "RA_OF_ASC_NODE": 32.0116, "ARG_OF_PERICENTER": 105.883, "MEAN_ANOMALY": 254.2654, "EPHEMERIS_TYPE": 0, "CLASSIFICATION_TYPE": "U", "NORAD_CAT_ID": 41774, "ELEMENT_SET_NO": 999, "REV_AT_EPOCH": 51912, "BSTAR": 0.00042040083, "MEAN_MOTION_DOT": 0.00019642, "MEAN_MOTION_DDOT": 0}, "tle": {"line1": "1 41774U 16058E   25358.82696370  .00019642  00000+0  42040-3 0  9991", "line2": "2 41774  96.9280  32.0116 0002126 105.8830 254.2654 15.44820533519129"}}, "geometry": {"type": "Point", "coordinates": [-153.67794917734298, -41.428089462742854]}}]}